#aV2007  7 17  0  0   .00000000      96 DD+AD WGS84 FIT  NGA
## 1436 172800.00000000   900.00000000 54298  .0000000000000
+   31     1  2  3  4  5  6  7  8  9 10 11 12 13 14 16 17 18
+         19 20 21 22 23 24 25 26 27 28 29 30 31 32  0  0  0
+          0  0  0  0  0  0  0  0  0  0  0  0  0  0  0  0  0
+          0  0  0  0  0  0  0  0  0  0  0  0  0  0  0  0  0
+          0  0  0  0  0  0  0  0  0  0  0  0  0  0  0  0  0
++         0  0  0  0  0  0  0  0  0  0  0  0  0  0  0  0  0
++         0  0  0  0  0  0  0  0  0  0  0  0  0  0  0  0  0
++         0  0  0  0  0  0  0  0  0  0  0  0  0  0  0  0  0
++         0  0  0  0  0  0  0  0  0  0  0  0  0  0  0  0  0
++         0  0  0  0  0  0  0  0  0  0  0  0  0  0  0  0  0
%c cc cc ccc ccc cccc cccc cccc cccc ccccc ccccc ccccc ccccc
%c cc cc ccc ccc cccc cccc cccc cccc ccccc ccccc ccccc ccccc
%f  0.0000000  0.000000000  0.00000000000  0.000000000000000
%f  0.0000000  0.000000000  0.00000000000  0.000000000000000
%i    0    0    0    0      0      0      0      0         0
%i    0    0    0    0      0      0      0      0         0
/*      NGA, ST. LOUIS,MO.                                  
/*   EPHEMERIS COMPUTED FROM  3 DAYS OF DATA                
/* CCCCCCCCCCCCCCCCCCCCCCCCCCCCCCCCCCCCCCCCCCCCCCCCCCCCCCCCC
/* CCCCCCCCCCCCCCCCCCCCCCCCCCCCCCCCCCCCCCCCCCCCCCCCCCCCCCCCC
*  2007  7 17 21 15   .00000000                                                 
P  1  15352.318966 -19861.867172  -8349.972860    140.497029                    
V  1  -2950.873158  10635.087916 -30048.835755       .021700                    
P  2 -17735.439283  13042.636637  14441.072525    122.294546                    
V  2 -19035.244107    -19.218079 -23334.029238       .027949                    
P  3  10015.937829 -24094.142806   3643.691369     88.029207                    
V  3   2601.916800   5940.767466  30706.492904       .055305                    
P  4 -25507.760586   6522.139839   4671.568464      6.236544                    
V  4  -6280.842003  -2198.347398 -30434.145355      -.016099                    
P  5  15107.917649  21474.453664  -4770.541566    190.151051                    
V  5  -6258.665396  -2040.929108 -30425.961808       .444674                    
P  6  10976.794504  13568.706920  20204.195002    236.235025                    
V  6  -9854.456365  23383.456495 -10486.163980       .055801                    
P  7  12906.985742  10433.375585  21076.119972    199.442601                    
V  7  -9053.493706  24469.174878  -6733.265620      -.205059                    
P  8 -26438.074104   -546.821672   4257.653687   -115.300494                    
V  8   5289.263358  -2314.246506  31258.807986      -.014960                    
P  9   3340.493925  15015.791482 -22264.818793     79.115130                    
V  9 -26404.874596   4576.359860   -692.991122       .016563                    
P 10  -5992.044762  15584.577321  20461.883402    104.912753                    
V 10 -16442.878180 -20560.187627  11091.751730       .005411                    
P 11  -6504.688502 -15441.895413 -20729.013898     20.651116                    
V 11  25110.829615  -8094.331499  -1558.469772       .006825                    
P 12  10043.377288  22952.643071  -8811.653459    -49.759467                    
V 12  -8918.427323  -7398.519354 -29030.665840      -.011660                    
P 13  -9450.783194 -12630.863712  21265.540067    190.736657                    
V 13  11664.375935 -24532.656245  -9310.474287       .031399                    
P 14  16883.082321  -7558.303838 -18941.514986     30.485586                    
V 14  -8657.333683  22613.524737 -16751.466992       .019984                    
P 16  10720.997591 -10899.843688  21789.895702    163.299047                    
V 16  16742.468336  21787.260504   2826.630336       .025821                    
P 17 -17047.331561   5041.681023 -19672.268563     60.843846                    
V 17   8464.982583 -23630.050583 -13508.679235      -.013666                    
P 18  19410.117255  15676.840594  -9450.854149   -244.000978                    
V 18   4963.729488  11335.204928  28208.754182       .013051                    
P 19   6250.814450 -24645.682408  -7351.662253     51.456967                    
V 19   6757.706634  -7282.236542  29873.383677       .029044                    
P 20 -12024.502410 -22767.990796  -6694.624026    -26.908818                    
V 20   7475.609798   4742.712690 -29998.996064      -.004897                    
P 21  22805.287752   6819.997957  12501.553001     78.656160                    
V 21 -15161.093100   4002.892748  25164.033552       .000721                    
P 22  18703.405458   3872.846676 -18318.588366    191.045839                    
V 22  12176.405909  20280.332779  16539.493877       .016142                    
P 23  -3165.624320 -20897.526839  15864.980017    182.744025                    
V 23   9470.234750 -18126.542357 -22082.771682       .033022                    
P 24  11598.104019  13230.030912  20015.647759     15.892028                    
V 24 -24878.916363   3370.402019  12597.452491       .029234                    
P 25 -16784.212102  -9439.813171  18592.619431    370.605056                    
V 25  21976.995715  -6680.932121  16928.408524       .169116                    
P 26  -7860.943796  24698.859746  -4626.954687   -312.688818                    
V 26  -4204.447126   4005.431230  32103.737907      -.221382                    
P 27 -22538.461441  -5310.210770  13856.707437    123.243088                    
V 27  15770.798136  -4938.186637  24715.562381       .023276                    
P 28 -19606.360647  -7836.593599 -15980.682485     -3.180126                    
V 28 -10914.064208 -17775.298308  21310.458115      -.008201                    
P 29 -10567.721029  24125.211687    955.170287      4.534189                    
V 29  -1700.762707  -1752.965660  32595.175936       .001828                    
P 30  17767.316946  19758.082461   1320.933097     39.814796                    
V 30  -1116.071401   3607.183628 -31313.791937       .010299                    
P 31  24154.936522  -8543.932297   7342.093233     15.445188                    
V 31   9301.023632   1208.474282 -29915.614263      -.009108                    
P 32  11847.506563  -8750.577897 -21636.974696    515.144730                    
V 32  15609.699612  23922.542792   -979.744787       .203241                    
EOF
